{
  "type": "FeatureCollection",
  "features": [
    {
      "type": "Feature",
      "properties": {
        "norad_id": 66639,
        "name": "STARLINK-35908",
        "group": "last-30-days",
        "lat": 39.966173951668935,
        "lon": -163.78044109083325,
        "alt_km": 412.5260235370388,
        "timestamp": "2025-12-18T23:35:47.781322+00:00",
        "meta_object_name": "STARLINK-35908",
        "meta_object_id": "2025-271Y",
        "meta_epoch": "2025-12-18T14:04:41.711232",
        "meta_mean_motion": 15.49323739,
        "meta_eccentricity": 0.00012052,
        "meta_inclination": 53.1595,
        "meta_ra_of_asc_node": 159.1882,
        "meta_arg_of_pericenter": 63.0322,
        "meta_mean_anomaly": 297.081,
        "meta_ephemeris_type": 0,
        "meta_classification_type": "U",
        "meta_norad_cat_id": 66639,
        "meta_element_set_no": 999,
        "meta_rev_at_epoch": 511,
        "meta_bstar": 0.0011230959,
        "meta_mean_motion_dot": 0.00062548,
        "meta_mean_motion_ddot": 0,
        "tle_line1": "1 66639U 25271Y   25352.58659388  .00062548  00000+0  11231-2 0  9990",
        "tle_line2": "2 66639  53.1595 159.1882 0001205  63.0322 297.0810 15.49323739  5118"
      },
      "geometry": {
        "type": "Point",
        "coordinates": [
          -163.78044109083325,
          39.966173951668935
        ]
      }
    },
    {
      "type": "Feature",
      "properties": {
        "norad_id": 66640,
        "name": "STARLINK-35921",
        "group": "last-30-days",
        "lat": 41.676406940107974,
        "lon": -160.84844830581562,
        "alt_km": 411.47794982899086,
        "timestamp": "2025-12-18T23:35:47.781333+00:00",
        "meta_object_name": "STARLINK-35921",
        "meta_object_id": "2025-271Z",
        "meta_epoch": "2025-12-17T02:27:41.322240",
        "meta_mean_motion": 15.49331878,
        "meta_eccentricity": 0.0001586,
        "meta_inclination": 53.1597,
        "meta_ra_of_asc_node": 166.2791,
        "meta_arg_of_pericenter": 66.7649,
        "meta_mean_anomaly": 293.3527,
        "meta_ephemeris_type": 0,
        "meta_classification_type": "U",
        "meta_norad_cat_id": 66640,
        "meta_element_set_no": 999,
        "meta_rev_at_epoch": 488,
        "meta_bstar": 0.001103034,
        "meta_mean_motion_dot": 0.00061432,
        "meta_mean_motion_ddot": 0,
        "tle_line1": "1 66640U 25271Z   25351.10256160  .00061432  00000+0  11030-2 0  9998",
        "tle_line2": "2 66640  53.1597 166.2791 0001586  66.7649 293.3527 15.49331878  4884"
      },
      "geometry": {
        "type": "Point",
        "coordinates": [
          -160.84844830581562,
          41.676406940107974
        ]
      }
    },
    {
      "type": "Feature",
      "properties": {
        "norad_id": 66641,
        "name": "STARLINK-35923",
        "group": "last-30-days",
        "lat": 45.40100879048747,
        "lon": -153.23773185841497,
        "alt_km": 412.12773121071496,
        "timestamp": "2025-12-18T23:35:47.781343+00:00",
        "meta_object_name": "STARLINK-35923",
        "meta_object_id": "2025-271AA",
        "meta_epoch": "2025-12-18T14:02:13.924032",
        "meta_mean_motion": 15.4927475,
        "meta_eccentricity": 9.281e-05,
        "meta_inclination": 53.1592,
        "meta_ra_of_asc_node": 159.1756,
        "meta_arg_of_pericenter": 78.504,
        "meta_mean_anomaly": 281.6073,
        "meta_ephemeris_type": 0,
        "meta_classification_type": "U",
        "meta_norad_cat_id": 66641,
        "meta_element_set_no": 999,
        "meta_rev_at_epoch": 511,
        "meta_bstar": 0.00045141192,
        "meta_mean_motion_dot": 0.00024707,
        "meta_mean_motion_ddot": 0,
        "tle_line1": "1 66641U 25271AA  25352.58488338  .00024707  00000+0  45141-3 0  9991",
        "tle_line2": "2 66641  53.1592 159.1756 0000928  78.5040 281.6073 15.49274750  5115"
      },
      "geometry": {
        "type": "Point",
        "coordinates": [
          -153.23773185841497,
          45.40100879048747
        ]
      }
    },
    {
      "type": "Feature",
      "properties": {
        "norad_id": 66642,
        "name": "STARLINK-35926",
        "group": "last-30-days",
        "lat": 44.4796854366818,
        "lon": -155.31235853160908,
        "alt_km": 411.9634753628179,
        "timestamp": "2025-12-18T23:35:47.781354+00:00",
        "meta_object_name": "STARLINK-35926",
        "meta_object_id": "2025-271AB",
        "meta_epoch": "2025-12-18T14:02:42.694368",
        "meta_mean_motion": 15.49343929,
        "meta_eccentricity": 9.03e-05,
        "meta_inclination": 53.159,
        "meta_ra_of_asc_node": 159.1781,
        "meta_arg_of_pericenter": 53.5396,
        "meta_mean_anomaly": 306.5697,
        "meta_ephemeris_type": 0,
        "meta_classification_type": "U",
        "meta_norad_cat_id": 66642,
        "meta_element_set_no": 999,
        "meta_rev_at_epoch": 507,
        "meta_bstar": 0.0011899463,
        "meta_mean_motion_dot": 0.00066378,
        "meta_mean_motion_ddot": 0,
        "tle_line1": "1 66642U 25271AB  25352.58521637  .00066378  00000+0  11899-2 0  9994",
        "tle_line2": "2 66642  53.1590 159.1781 0000903  53.5396 306.5697 15.49343929  5071"
      },
      "geometry": {
        "type": "Point",
        "coordinates": [
          -155.31235853160908,
          44.4796854366818
        ]
      }
    },
    {
      "type": "Feature",
      "properties": {
        "norad_id": 66643,
        "name": "STARLINK-35918",
        "group": "last-30-days",
        "lat": 42.26539313816995,
        "lon": -159.76506112284324,
        "alt_km": 412.09817521044624,
        "timestamp": "2025-12-18T23:35:47.781364+00:00",
        "meta_object_name": "STARLINK-35918",
        "meta_object_id": "2025-271AC",
        "meta_epoch": "2025-12-18T14:03:43.788672",
        "meta_mean_motion": 15.49357546,
        "meta_eccentricity": 0.00012183,
        "meta_inclination": 53.1594,
        "meta_ra_of_asc_node": 159.1836,
        "meta_arg_of_pericenter": 83.2904,
        "meta_mean_anomaly": 276.8244,
        "meta_ephemeris_type": 0,
        "meta_classification_type": "U",
        "meta_norad_cat_id": 66643,
        "meta_element_set_no": 999,
        "meta_rev_at_epoch": 511,
        "meta_bstar": 0.0014607733,
        "meta_mean_motion_dot": 0.00081789,
        "meta_mean_motion_ddot": 0,
        "tle_line1": "1 66643U 25271AC  25352.58592348  .00081789  00000+0  14608-2 0  9996",
        "tle_line2": "2 66643  53.1594 159.1836 0001218  83.2904 276.8244 15.49357546  5114"
      },
      "geometry": {
        "type": "Point",
        "coordinates": [
          -159.76506112284324,
          42.26539313816995
        ]
      }
    },
    {
      "type": "Feature",
      "properties": {
        "norad_id": 66644,
        "name": "STARLINK-35938",
        "group": "last-30-days",
        "lat": 43.39270972642575,
        "lon": -157.58239408533797,
        "alt_km": 412.4283175533501,
        "timestamp": "2025-12-18T23:35:47.781374+00:00",
        "meta_object_name": "STARLINK-35938",
        "meta_object_id": "2025-271AD",
        "meta_epoch": "2025-12-18T14:03:12.396096",
        "meta_mean_motion": 15.49326247,
        "meta_eccentricity": 6.971e-05,
        "meta_inclination": 53.1592,
        "meta_ra_of_asc_node": 159.1809,
        "meta_arg_of_pericenter": 87.4611,
        "meta_mean_anomaly": 272.6478,
        "meta_ephemeris_type": 0,
        "meta_classification_type": "U",
        "meta_norad_cat_id": 66644,
        "meta_element_set_no": 999,
        "meta_rev_at_epoch": 511,
        "meta_bstar": 0.00076809482,
        "meta_mean_motion_dot": 0.00042529,
        "meta_mean_motion_ddot": 0,
        "tle_line1": "1 66644U 25271AD  25352.58556014  .00042529  00000+0  76809-3 0  9998",
        "tle_line2": "2 66644  53.1592 159.1809 0000697  87.4611 272.6478 15.49326247  5111"
      },
      "geometry": {
        "type": "Point",
        "coordinates": [
          -157.58239408533797,
          43.39270972642575
        ]
      }
    },
    {
      "type": "Feature",
      "properties": {
        "norad_id": 66645,
        "name": "SHENZHOU-22",
        "group": "last-30-days",
        "lat": -28.22810136165405,
        "lon": -58.641439983915525,
        "alt_km": 395.0045603663557,
        "timestamp": "2025-12-18T23:35:47.781384+00:00",
        "meta_object_name": "SHENZHOU-22",
        "meta_object_id": "2025-272A",
        "meta_epoch": "2025-12-18T06:53:03.575616",
        "meta_mean_motion": 15.59417882,
        "meta_eccentricity": 0.00077258,
        "meta_inclination": 41.4683,
        "meta_ra_of_asc_node": 343.0261,
        "meta_arg_of_pericenter": 79.3286,
        "meta_mean_anomaly": 280.8422,
        "meta_ephemeris_type": 0,
        "meta_classification_type": "U",
        "meta_norad_cat_id": 66645,
        "meta_element_set_no": 999,
        "meta_rev_at_epoch": 26357,
        "meta_bstar": 0.00029030456,
        "meta_mean_motion_dot": 0.00023377,
        "meta_mean_motion_ddot": 0,
        "tle_line1": "1 66645U 25272A   25352.28684694  .00023377  00000+0  29030-3 0  9997",
        "tle_line2": "2 66645  41.4683 343.0261 0007725  79.3286 280.8422 15.59417882263579"
      },
      "geometry": {
        "type": "Point",
        "coordinates": [
          -58.641439983915525,
          -28.22810136165405
        ]
      }
    }
  ]
}